NORAD_CAT_ID,OBJECT_NAME,OBJECT_TYPE,EPOCH,MEAN_MOTION,ECCENTRICITY,INCLINATION,RA_OF_ASC_NODE,ARG_OF_PERICENTER,MEAN_ANOMALY,BSTAR,MEAN_MOTION_DOT,MEAN_MOTION_DDOT,TLE_LINE0,TLE_LINE1,TLE_LINE2,SEMIMAJOR_AXIS,PERIOD,APOGEE,PERIGEE,DECAYED
55790.0,STARLINK-5813,PAYLOAD,2023-12-07 12:27:07,14.98327715,0.0003384,69.9994,119.9461,267.3331,92.7441,-3.0256e-05,-4.54e-06,0.0,0 STARLINK-5813,1 55790U 23028BB  23341.51883695 -.00000454  00000-0 -30256-4 0  9994,2 55790  69.9994 119.9461 0003384 267.3331  92.7441 14.98327715 43717,6950.2,96.107,574.417,569.713,0.0
55790.0,STARLINK-5813,PAYLOAD,2023-12-08 12:29:08,14.98328996,0.0003472,69.9992,117.4209,267.959,92.1172,3.1347e-05,2.81e-06,0.0,0 STARLINK-5813,1 55790U 23028BB  23342.52023476  .00000281  00000-0  31347-4 0  9997,2 55790  69.9992 117.4209 0003472 267.9590  92.1172 14.98328996 43862,6950.196,96.107,574.474,569.648,0.0
55790.0,STARLINK-5813,PAYLOAD,2023-12-09 12:31:09,14.9833107,0.0003475,69.9991,114.8955,267.577,92.4991,2.7225e-05,2.32e-06,0.0,0 STARLINK-5813,1 55790U 23028BB  23343.52163297  .00000232  00000-0  27225-4 0  9990,2 55790  69.9991 114.8955 0003475 267.5770  92.4991 14.98331070 44027,6950.19,96.107,574.47,569.639,0.0
55790.0,STARLINK-5813,PAYLOAD,2023-12-10 14:09:18,14.98332054,0.000346,69.9994,112.2028,267.3964,92.6799,-1.3929e-05,-2.59e-06,0.0,0 STARLINK-5813,1 55790U 23028BB  23344.58979241 -.00000259  00000-0 -13929-4 0  9998,2 55790  69.9994 112.2028 0003460 267.3964  92.6799 14.98332054 44188,6950.187,96.107,574.456,569.647,0.0
55790.0,STARLINK-5813,PAYLOAD,2023-12-10 18:57:42,14.98333504,0.0003426,69.9998,111.6985,267.5179,92.5588,1.0255e-06,-8.1e-07,0.0,0 STARLINK-5813,1 55790U 23028BB  23344.79007091 -.00000081  00000-0  10255-5 0  9998,2 55790  69.9998 111.6985 0003426 267.5179  92.5588 14.98333504 44208,6950.182,96.107,574.428,569.666,0.0
55790.0,STARLINK-5813,PAYLOAD,2023-12-11 14:11:19,14.98328458,0.0003305,70.0002,109.679,266.8073,93.2708,-1.606e-05,-2.85e-06,0.0,0 STARLINK-5813,1 55790U 23028BB  23345.59119383 -.00000285  00000-0 -16060-4 0  9991,2 55790  70.0002 109.6790 0003305 266.8073  93.2708 14.98328458 44337,6950.198,96.107,574.36,569.766,0.0
55790.0,STARLINK-5813,PAYLOAD,2023-12-11 18:59:43,14.98329654,0.000328,70.0003,109.1742,266.7453,93.3331,-1.1991e-06,-1.07e-06,0.0,0 STARLINK-5813,1 55790U 23028BB  23345.79147271 -.00000107  00000-0 -11991-5 0  9992,2 55790  70.0003 109.1742 0003280 266.7453  93.3331 14.98329654 44357,6950.194,96.107,574.339,569.779,0.0
55790.0,STARLINK-5813,PAYLOAD,2023-12-12 14:13:19,14.98329654,0.0003392,70.0001,107.155,264.9619,95.1153,-1.9108e-05,-3.21e-06,0.0,0 STARLINK-5813,1 55790U 23028BB  23346.59259242 -.00000321  00000-0 -19108-4 0  9998,2 55790  70.0001 107.1550 0003392 264.9619  95.1153 14.98329654 44484,6950.194,96.107,574.416,569.701,0.0
55790.0,STARLINK-5813,PAYLOAD,2023-12-12 17:25:35,14.9833661,0.0003333,70.0002,106.8183,274.0248,86.053,7.4738e-05,7.99e-06,0.0,0 STARLINK-5813,1 55790U 23028BB  23346.72610714  .00000799  00000-0  74738-4 0  9995,2 55790  70.0002 106.8183 0003333 274.0248  86.0530 14.98336610 44497,6950.172,96.107,574.354,569.721,0.0
55790.0,STARLINK-5813,PAYLOAD,2023-12-13 11:03:04,14.98329667,0.0003328,70.0002,104.9662,266.3481,93.7297,2.1833e-05,1.67e-06,0.0,0 STARLINK-5813,1 55790U 23028BB  23347.46047086  .00000167  00000-0  21833-4 0  9990,2 55790  70.0002 104.9662 0003328 266.3481  93.7297 14.98329667 44607,6950.194,96.107,574.372,569.746,0.0
55790.0,STARLINK-5813,PAYLOAD,2023-12-13 14:15:20,14.98329276,0.0003361,70.0001,104.6294,266.467,93.6105,1.5254e-05,8.9e-07,0.0,0 STARLINK-5813,1 55790U 23028BB  23347.59399125  .00000089  00000-0  15254-4 0  9991,2 55790  70.0001 104.6294 0003361 266.4670  93.6105 14.98329276 44638,6950.195,96.107,574.396,569.724,0.0
55790.0,STARLINK-5813,PAYLOAD,2023-12-13 17:27:36,14.98331286,0.0003285,70.0001,104.2927,262.0991,97.9795,3.0692e-05,2.73e-06,0.0,0 STARLINK-5813,1 55790U 23028BB  23347.72750889  .00000273  00000-0  30692-4 0  9992,2 55790  70.0001 104.2927 0003285 262.0991  97.9795 14.98331286 44658,6950.189,96.107,574.337,569.771,0.0
55790.0,STARLINK-5813,PAYLOAD,2023-12-14 11:05:05,14.98329006,0.0003262,70.0003,102.4415,261.4592,98.6198,-1.6053e-06,-1.12e-06,0.0,0 STARLINK-5813,1 55790U 23028BB  23348.46187072 -.00000112  00000-0 -16053-5 0  9992,2 55790  70.0003 102.4415 0003262 261.4592  98.6198 14.98329006 44750,6950.196,96.107,574.328,569.794,0.0
55790.0,STARLINK-5813,PAYLOAD,2023-12-14 14:17:21,14.98328708,0.0003152,70.0009,102.1058,258.7283,101.3521,3.1682e-05,2.85e-06,0.0,0 STARLINK-5813,1 55790U 23028BB  23348.59538990  .00000285  00000-0  31682-4 0  9998,2 55790  70.0009 102.1058 0003152 258.7283 101.3521 14.98328708 44783,6950.197,96.107,574.253,569.871,0.0
55790.0,STARLINK-5813,PAYLOAD,2023-12-14 17:29:37,14.98332483,0.0003095,70.0008,101.7687,257.9846,102.0966,-3.7915e-06,-1.38e-06,0.0,0 STARLINK-5813,1 55790U 23028BB  23348.72890838 -.00000138  00000-0 -37915-5 0  9990,2 55790  70.0008 101.7687 0003095 257.9846 102.0966 14.98332483 44806,6950.185,96.107,574.201,569.899,0.0
55790.0,STARLINK-5813,PAYLOAD,2023-12-15 11:07:06,14.98325448,0.0003084,70.0011,99.9182,256.7861,103.2954,-4.8373e-05,-6.7e-06,0.0,0 STARLINK-5813,1 55790U 23028BB  23349.46327413 -.00000670  00000-0 -48373-4 0  9996,2 55790  70.0011  99.9182 0003084 256.7861 103.2954 14.98325448 44904,6950.207,96.107,574.215,569.929,0.0
55790.0,STARLINK-5813,PAYLOAD,2023-12-15 14:19:23,14.98323468,0.0003134,70.001,99.5814,258.5334,101.5473,-7.2779e-05,-9.61e-06,0.0,0 STARLINK-5813,1 55790U 23028BB  23349.59679654 -.00000961  00000-0 -72779-4 0  9997,2 55790  70.0010  99.5814 0003134 258.5334 101.5473 14.98323468 44932,6950.213,96.107,574.256,569.9,0.0
55790.0,STARLINK-5813,PAYLOAD,2023-12-15 17:31:39,14.98323179,0.0003159,70.0009,99.2444,260.7578,99.3224,-7.4168e-05,-9.78e-06,0.0,0 STARLINK-5813,1 55790U 23028BB  23349.73031735 -.00000978  00000-0 -74168-4 0  9997,2 55790  70.0009  99.2444 0003159 260.7578  99.3224 14.98323179 44957,6950.214,96.107,574.275,569.883,0.0
55790.0,STARLINK-5813,PAYLOAD,2023-12-16 11:09:07,14.98332529,0.0003385,70.0005,97.3928,265.0605,95.0168,-5.959e-06,-1.64e-06,0.0,0 STARLINK-5813,1 55790U 23028BB  23350.46467038 -.00000164  00000-0 -59590-5 0  9998,2 55790  70.0005  97.3928 0003385 265.0605  95.0168 14.98332529 45050,6950.185,96.107,574.403,569.697,0.0
55790.0,STARLINK-5813,PAYLOAD,2023-12-16 14:21:23,14.98332874,0.0003301,70.0006,97.0552,266.5588,93.5194,2.1019e-06,-6.8e-07,0.0,0 STARLINK-5813,1 55790U 23028BB  23350.59819043 -.00000068  00000-0  21019-5 0  9996,2 55790  70.0006  97.0552 0003301 266.5588  93.5194 14.98332874 45083,6950.184,96.107,574.343,569.755,0.0
55790.0,STARLINK-5813,PAYLOAD,2023-12-16 17:33:39,14.98336781,0.0003409,70.0003,96.7188,267.5459,92.531,4.9562e-05,4.98e-06,0.0,0 STARLINK-5813,1 55790U 23028BB  23350.73170616  .00000498  00000-0  49562-4 0  9996,2 55790  70.0003  96.7188 0003409 267.5459  92.5310 14.98336781 45101,6950.172,96.107,574.406,569.668,0.0
55790.0,STARLINK-5813,PAYLOAD,2023-12-17 11:11:08,14.9832497,0.0003239,70.0015,94.8702,256.5524,103.5274,6.4949e-05,6.82e-06,0.0,0 STARLINK-5813,1 55790U 23028BB  23351.46607282  .00000682  00000-0  64949-4 0  9992,2 55790  70.0015  94.8702 0003239 256.5524 103.5274 14.98324970 45207,6950.208,96.107,574.325,569.822,0.0
55790.0,STARLINK-5813,PAYLOAD,2023-12-17 14:23:24,14.98327246,0.0003138,70.0015,94.5324,255.248,104.8331,9.1432e-05,9.98e-06,0.0,0 STARLINK-5813,1 55790U 23028BB  23351.59959070  .00000998  00000-0  91432-4 0  9998,2 55790  70.0015  94.5324 0003138 255.2480 104.8331 14.98327246 45239,6950.201,96.107,574.247,569.885,0.0
55790.0,STARLINK-5813,PAYLOAD,2023-12-17 17:35:40,14.98328109,0.0003078,70.0014,94.1948,260.3867,99.6945,0.0001021,1.125e-05,0.0,0 STARLINK-5813,1 55790U 23028BB  23351.73311033  .00001125  00000-0  10210-3 0  9992,2 55790  70.0014  94.1948 0003078 260.3867  99.6945 14.98328109 45258,6950.199,96.107,574.203,569.924,0.0
55790.0,STARLINK-5813,PAYLOAD,2023-12-18 11:13:08,14.98337257,0.0003347,70.0009,92.3438,266.2286,93.849,2.5801e-05,2.15e-06,0.0,0 STARLINK-5813,1 55790U 23028BB  23352.46746396  .00000215  00000-0  25801-4 0  9999,2 55790  70.0009  92.3438 0003347 266.2286  93.8490 14.98337257 45351,6950.17,96.107,574.362,569.709,0.0
55790.0,STARLINK-5813,PAYLOAD,2023-12-18 14:25:24,14.98339528,0.0003204,70.0011,92.0076,259.9126,100.1671,4.9065e-05,4.93e-06,0.0,0 STARLINK-5813,1 55790U 23028BB  23352.60098079  .00000493  00000-0  49065-4 0  9999,2 55790  70.0011  92.0076 0003204 259.9126 100.1671 14.98339528 45382,6950.163,96.106,574.255,569.802,0.0
55790.0,STARLINK-5813,PAYLOAD,2023-12-18 16:01:32,14.98340525,0.0003164,70.0013,91.8399,256.8805,103.2001,6.3026e-05,6.59e-06,0.0,0 STARLINK-5813,1 55790U 23028BB  23352.66773926  .00000659  00000-0  63026-4 0  9993,2 55790  70.0013  91.8399 0003164 256.8805 103.2001 14.98340525 45395,6950.16,96.106,574.224,569.826,0.0
55790.0,STARLINK-5813,PAYLOAD,2023-12-19 11:15:09,14.98329157,0.0002859,70.0035,89.8226,229.5518,130.5392,1.6093e-06,-7.4e-07,0.0,0 STARLINK-5813,1 55790U 23028BB  23353.46886515 -.00000074  00000-0  16093-5 0  9996,2 55790  70.0035  89.8226 0002859 229.5518 130.5392 14.98329157 45500,6950.195,96.107,574.048,570.073,0.0
55790.0,STARLINK-5813,PAYLOAD,2023-12-19 14:27:26,14.98327443,0.0002956,70.0022,89.4846,242.4052,117.6807,-4.9918e-05,-6.88e-06,0.0,0 STARLINK-5813,1 55790U 23028BB  23353.60238824 -.00000688  00000-0 -49918-4 0  9999,2 55790  70.0022  89.4846 0002956 242.4052 117.6807 14.98327443 45531,6950.201,96.107,574.12,570.011,0.0
55790.0,STARLINK-5813,PAYLOAD,2023-12-20 11:17:11,14.98322761,0.0002798,70.0028,87.2969,239.1356,120.9528,-0.0001313,-1.659e-05,0.0,0 STARLINK-5813,1 55790U 23028BB  23354.47027539 -.00001659  00000-0 -13130-3 0  9999,2 55790  70.0028  87.2969 0002798 239.1356 120.9528 14.98322761 45651,6950.215,96.107,574.025,570.136,0.0
